KUIPER-00268            
1 67790U 26030AC  26064.00695861  .00037075  00000+0  10541-2 0  9997
2 67790  51.8846 241.6907 0002453  35.7027 324.4123 15.35796041  4374
KUIPER-00270            
1 67791U 26030AD  26063.96039897  .00026518  00000+0  79052-3 0  9996
2 67791  51.8808 242.1152 0010049  43.4412 316.7364 15.34436452  4361
KUIPER-00274            
1 67792U 26030AE  26064.18136266 -.00034790  00000+0 -11184-2 0  9994
2 67792  51.8814 241.3433 0018670  57.2432 303.0348 15.31367467  4395
KUIPER-00275            
1 67793U 26030AF  26063.95780515  .00035353  00000+0  10466-2 0  9997
2 67793  51.8843 242.1080 0008964  39.4841 320.6796 15.34518049  4362
KUIPER-00276            
1 67794U 26030AG  26064.18535151  .00031853  00000+0  10384-2 0  9998
2 67794  51.8807 241.3676 0018844  54.6829 305.5914 15.31368165  4394
KUIPER-00279            
1 67795U 26030AH  26063.95122949  .00031226  00000+0  90688-3 0  9990
2 67795  51.8801 242.0547 0006441  34.4125 325.7277 15.35198982  4364
